FLOCK 4BE-17            
1 60492U 24149AA  26197.19685617  .00009164  00000+0  22728-3 0  9992
2 60492  97.3771 280.8101 0004471 143.9783 216.1765 15.40589478106723
FLOCK 4BE-22            
1 60494U 24149AC  26197.67123838  .00009806  00000+0  23186-3 0  9991
2 60494  97.3732 281.5282 0004802 149.8093 210.3431 15.42015181106843
FLOCK 4BE-34            
1 60495U 24149AD  26197.81862375  .00009697  00000+0  22957-3 0  9997
2 60495  97.3781 282.5179 0004994 156.8786 203.2686 15.41982011106895
FLOCK 4BE-32            
1 60497U 24149AF  26197.18302524  .00010080  00000+0  22979-3 0  9996
2 60497  97.3718 281.4419 0005029 155.7934 204.3551 15.43106297106805
FLOCK 4BE-11            
1 60501U 24149AK  26197.68104679  .00010529  00000+0  23355-3 0  9995
2 60501  97.3694 282.2039 0005155 154.5490 205.6013 15.43908786106906
FLOCK 4BE-24            
1 60505U 24149AP  26197.21089469  .00011690  00000+0  25716-3 0  9990
2 60505  97.3715 281.9968 0005123 166.9328 193.2054 15.44126319106848
FLOCK 4BE-29            
1 60509U 24149AT  26197.20092847  .00025154  00000+0  52478-3 0  9992
2 60509  97.3809 283.5336 0003695 174.1521 185.9772 15.45530128106899
FLOCK 4BE-2             
1 60511U 24149AV  26197.22215211  .00041257  00000+0  59257-3 0  9993
2 60511  97.3830 285.4157 0005352 170.7885 189.3469 15.55985498107016
FLOCK 4BE-13            
1 60512U 24149AW  26197.22288513  .00007950  00000+0  18456-3 0  9997
2 60512  97.3719 281.9503 0005174 152.9426 207.2092 15.42633135106840
FLOCK 4BE-27            
1 60513U 24149AX  26197.79591476  .00005394  00000+0  16158-3 0  9992
2 60513  97.3822 279.6700 0004176 176.4882 183.6392 15.34935178106682
FLOCK 4BE-9             
1 60514U 24149AY  26197.69615950  .00011929  00000+0  28513-3 0  9995
2 60514  97.3789 282.2704 0003835 166.7214 193.4134 15.41640499106861
FLOCK 4BE-6             
1 60516U 24149BA  26197.68394403  .00009150  00000+0  22879-3 0  9995
2 60516  97.3786 281.5593 0004490 168.7072 191.4275 15.40344020106819
FLOCK 4BE-14            
1 60517U 24149BB  26197.18509359  .00009708  00000+0  23061-3 0  9992
2 60517  97.3693 281.2204 0005513 173.4498 186.6822 15.41874549106791
FLOCK 4BE-1             
1 60518U 24149BC  26197.81868155  .00011365  00000+0  25497-3 0  9992
2 60518  97.3777 283.2454 0005161 171.1965 188.9375 15.43549394106941
FLOCK 4BE-28            
1 60519U 24149BD  26197.20373336  .00026129  00000+0  52987-3 0  9996
2 60519  97.3746 283.4415 0005232 172.7057 187.4270 15.46347044106922
FLOCK 4BE-5             
1 60559U 24149CV  26197.18902229  .00009121  00000+0  22277-3 0  9998
2 60559  97.3840 281.4834 0004143 168.1835 191.9510 15.41060877106745
